SHIJIAN-6 04B (SJ-6 04B)
1 37180U 10051B   24062.80314545  .00001392  00000+0  13031-3 0  9995
2 37180  97.8320  52.1748 0010099 219.3350 140.7138 14.95684382730508
FENGYUN 3B              
1 37214U 10059A   24062.90236406  .00000132  00000+0  92746-4 0  9993
2 37214  99.0676  89.4548 0022694  35.3241  85.0496 14.14451318689226
COSMO-SKYMED 4          
1 37216U 10060A   24062.78581900  .00000809  00000+0  10817-3 0  9994
2 37216  97.8843 247.4916 0001426  84.8900 275.2475 14.82152921720731
ELEKTRO-L 1 (GOMS 2)    
1 37344U 11001A   24062.14777150  .00000130  00000+0  00000+0 0  9992
2 37344   7.7632  62.5129 0006024   9.6773 190.7849  1.00162330 48092
RESOURCESAT-2           
1 37387U 11015A   24062.81997146  .00000182  00000+0  10249-3 0  9994
2 37387  98.5893 131.4909 0005364  71.5134 288.6627 14.21684302667872
YOUTHSAT                
1 37388U 11015B   24062.79549855  .00000312  00000+0  15127-3 0  9997
2 37388  98.3000  68.1482 0013456 279.8341 253.3355 14.24796630669024
APRIZESAT 6             
1 37793U 11044F   24062.24736965  .00001048  00000+0  16510-3 0  9993
2 37793  98.3186 302.9584 0044334 236.1303 239.6812 14.74098188673718
JUGNU                   
1 37839U 11058B   24061.52268206  .00000543  00000+0  14571-3 0  9991
2 37839  19.9618 355.3578 0018834 188.2608 329.4654 14.13130774640362
SRMSAT                  
1 37841U 11058D   24061.79178721  .00000520  00000+0  13979-3 0  9991
2 37841  19.9716  86.3012 0011834 355.1799 161.8685 14.11046658639373
SUOMI NPP               
1 37849U 11061A   24062.82259468  .00000136  00000+0  85150-4 0  9990
2 37849  98.7315   2.4441 0000764 103.7883 256.3378 14.19564124639771
M-CUBED & EXP-1 PRIME   
1 37855U 11061F   24062.84219307  .00067363  00000+0  10688-2 0  9994
2 37855 101.6833 181.1567 0076526 311.4192  48.0484 15.49782155676899
YAOGAN 12               
1 37875U 11066B   24062.81691553  .00010191  00000+0  42784-3 0  9995
2 37875  97.2351 126.1611 0008290 347.3653  12.7375 15.23614807685222
ZIYUAN 3-1 (ZY 3-1)     
1 38046U 12001A   24062.83502468  .00012537  00000+0  45695-3 0  9994
2 38046  97.2608 127.2978 0005896 148.2067 211.9530 15.28298279674682
BEIDOU-2 M4             
1 38251U 12018B   24060.39846323 -.00000077  00000+0  00000+0 0  9994
2 38251  56.3157 332.2412 0013582 274.8120  85.0736  1.86232099 80320
ARIRANG-3 (KOMPSAT-3)   
1 38338U 12025B   24062.83323594  .00000866  00000+0  18017-3 0  9995
2 38338  98.2510   9.0889 0009532 205.7974 154.2753 14.62524120629190
HORYU-2                 
1 38340U 12025D   24061.94727545  .00003340  00000+0  44154-3 0  9994
2 38340  98.1602 159.8001 0010621  29.5012 330.6797 14.80639378624353
METOP-B                 
1 38771U 12049A   24062.81789431  .00000150  00000+0  88306-4 0  9991
2 38771  98.6422 122.3622 0000941  63.7651 296.3623 14.21479116594431
SJ-9A                   
1 38860U 12056A   24062.83414355  .00001393  00000+0  18242-3 0  9991
2 38860  97.5894  61.1204 0029279 125.0700 235.3266 14.81580059614770
COSMOS 2484             
1 39059U 13001C   24062.56109374  .00000054  00000+0  31963-3 0  9993
2 39059  82.5053  22.0798 0027672  59.5834 300.7975 12.42892673504629
SARAL                   
1 39086U 13009A   24062.55395939  .00000198  00000+0  89249-4 0  9994
2 39086  98.5495 249.1443 0001124 210.2695 149.8424 14.32355825575814
AAUSAT 3                
1 39087U 13009B   24062.77430779  .00001043  00000+0  36279-3 0  9995
2 39087  98.3729 256.0594 0011682 197.4833 162.5953 14.37411335577216
STRAND-1                
1 39090U 13009E   24062.53010527  .00000488  00000+0  18278-3 0  9999
2 39090  98.3822 253.7473 0008388 204.7017 155.3768 14.35914265576939
BRITE-AUSTRIA           
1 39091U 13009F   24062.48810419  .00000320  00000+0  12567-3 0  9992
2 39091  98.3860 252.9681 0009724 213.0469 147.0110 14.35698668576950
UNIBRITE                
1 39092U 13009G   24062.77442932  .00000327  00000+0  12816-3 0  9990
2 39092  98.3902 253.1449 0008721 206.7521 153.3216 14.35572168576950
AIST-2 (RS-43)          
1 39133U 13015D   24062.78490590  .00005154  00000+0  31260-3 0  9994
2 39133  64.8712  83.1715 0006915 243.7937 116.2475 15.11603870597278
GAOFEN-1                
1 39150U 13018A   24062.79984710  .00001026  00000+0  15433-3 0  9997
2 39150  97.9993 136.2514 0021587  78.8271 281.5364 14.76465739584866
NEE-01 PEGASO           
1 39151U 13018B   24062.83648067  .00003321  00000+0  39767-3 0  9991
2 39151  98.0221 179.0840 0015810  30.1917 330.0205 14.84727436586196
TURKSAT-3USAT           
1 39152U 13018C   24062.79406086  .00003799  00000+0  44004-3 0  9999
2 39152  97.8320 150.1152 0014828 355.5392   4.5688 14.86000946586403
CUBEBUG-1 (CAPITAN BETO)
1 39153U 13018D   24062.81739506  .00004636  00000+0  53324-3 0  9995
2 39153  98.0582 186.6777 0015209  23.0884 337.1011 14.86198427586408
PROBA-V                 
1 39159U 13021A   24062.63731750  .00000122  00000+0  71870-4 0  9991
2 39159  98.3112  75.0778 0005318  70.4186 289.7567 14.23217520562105
ESTCUBE 1               
1 39161U 13021C   24062.63949110  .00002283  00000+0  34116-3 0  9996
2 39161  97.8400 132.3566 0008534 206.8109 153.2661 14.75671496581415
ARIRANG-5 (KOMPSAT-5)   
1 39227U 13042A   24062.75671783  .00002008  00000+0  14767-3 0  9998
2 39227  97.6189 250.1411 0002103  84.3506 275.7960 15.04521705578153
GONETS-M 5              
1 39249U 13048A   24062.82757507  .00000022  00000+0  86874-4 0  9998
2 39249  82.4841 144.7678 0016037 232.9316 127.0298 12.42890004475135
GONETS-M 7              
1 39251U 13048C   24062.55678677  .00000031  00000+0  15623-3 0  9994
2 39251  82.4913 147.4039 0016582 234.4637 125.4897 12.42867360474907
FENGYUN 3C              
1 39260U 13052A   24062.90604882  .00000161  00000+0  10207-3 0  9992
2 39260  98.4294  68.1503 0009904 274.3095  85.6948 14.16155264540287
CASSIOPE                
1 39265U 13055A   24062.52747683  .00018642  00000+0  41375-3 0  9998
2 39265  80.9580 314.0671 0519278 237.2295 117.7867 14.64308673542753
APRIZESAT 7             
1 39416U 13066A   24062.46244078  .00002018  00000+0  22923-3 0  9999
2 39416  97.6580  25.3680 0040804 100.3181 260.2639 14.86760682556679
ZACUBE-1 (TSHEPISOSAT)  
1 39417U 13066B   24062.83926225  .00004935  00000+0  53366-3 0  9997
2 39417  97.7223  21.3993 0053067 150.1764 210.2495 14.87701717555762
APRIZESAT 8             
1 39425U 13066K   24062.86492810  .00001509  00000+0  18530-3 0  9995
2 39425  97.7163  18.7785 0050230 152.8836 207.5018 14.83616775555744
CINEMA-3 (KHUSAT-2)     
1 39426U 13066L   24062.32654864  .00002842  00000+0  41797-3 0  9998
2 39426  97.8411 347.9416 0099699  35.6560 325.1253 14.72850158551000
TRITON-1                
1 39427U 13066M   24062.78010206  .00004008  00000+0  57810-3 0  9994
2 39427  97.8424 344.2830 0106160  64.9170 296.3011 14.72986733550738
DELFI-N3XT              
1 39428U 13066N   24062.31036209  .00006705  00000+0  89206-3 0  9995
2 39428  97.8389 343.6311 0106200  74.7649 286.5273 14.76113861550314
GOMX-1                  
1 39430U 13066Q   24062.75376426  .00002460  00000+0  42104-3 0  9994
2 39430  97.7486 303.5459 0140592 230.6749 128.1923 14.63391385547479
BRITE-PL1 (LEM)         
1 39431U 13066R   24062.41422910  .00001119  00000+0  24006-3 0  9999
2 39431  97.6905 230.0640 0199177  92.9118 269.4889 14.48680587542656
ICUBE-1                 
1 39432U 13066S   24062.50762164  .00009599  00000+0  77941-3 0  9994
2 39432  97.5105  47.8675 0025175 337.4135  22.5979 14.99577920557940
HUMSAT-D                
1 39433U 13066T   24062.56711088  .00012241  00000+0  85409-3 0  9996
2 39433  97.4880  56.9388 0017867 292.2668  67.6664 15.05388744558696
VELOX-PII               
1 39438U 13066Y   24062.85021586  .00003368  00000+0  40479-3 0  9998
2 39438  97.7763  13.2757 0062649 218.4379 141.2364 14.83225664554538
FIRST-MOVE              
1 39439U 13066Z   24062.47193916  .00010738  00000+0  93575-3 0  9998
2 39439  97.7144  27.2021 0051946 132.0899 228.4758 14.96009673554907
CUBEBUG-2 (LO-74)       
1 39440U 13066AA  24062.41227503  .00004498  00000+0  54984-3 0  9991
2 39440  97.8032   8.5681 0069835 262.7774  96.5496 14.82021509552514
NEE-02 KRYSAOR          
1 39441U 13066AB  24062.52665851  .00003341  00000+0  43670-3 0  9992
2 39441  97.8130   4.9201 0073923 282.9952  76.3014 14.79228000553320
FUNCUBE-1 (AO-73)       
1 39444U 13066AE  24062.85297693  .00006224  00000+0  63326-3 0  9999
2 39444  97.7082  24.2997 0051339 132.5487 228.0083 14.90114033554859
HINCUBE                 
1 39445U 13066AF  24062.80896775  .00005535  00000+0  56866-3 0  9996
2 39445  97.7089  23.9503 0051311 135.8082 224.7252 14.89773331554360
UWE-3                   
1 39446U 13066AG  24062.41153207  .00004425  00000+0  51203-3 0  9997
2 39446  97.7697  14.6313 0061210 208.7279 151.0560 14.84674831552855
COSMOS 2488             
1 39483U 13076A   24062.50899360  .00000047  00000+0  26403-3 0  9996
2 39483  82.4885 330.1055 0019857 115.6997 244.6135 12.42880419461958
COSMOS 2489             
1 39484U 13076B   24062.56207539  .00000032  00000+0  16152-3 0  9998
2 39484  82.4923 331.1962 0021888 117.1401 243.1914 12.42872188462015
COSMOS 2490             
1 39485U 13076C   24062.77670815  .00000023  00000+0  94691-4 0  9998
2 39485  82.4867 329.4991 0021471 131.2050 229.0885 12.42886767462186
AIST-1 (RS-41)          
1 39492U 13078C   24062.81594601  .00002467  00000+0  24690-3 0  9996
2 39492  82.4212 358.2020 0018137 188.2998 171.7923 14.90923477552719
KAZEOSAT 1              
1 39731U 14024A   24062.77361287  .00000292  00000+0  10230-3 0  9990
2 39731  98.4026 140.9362 0001223  83.2091 276.9238 14.41995203518065
COSMOS 2496             
1 39761U 14028A   24062.57440062  .00000024  00000+0  10284-3 0  9996
2 39761  82.4404 272.7472 0020253 102.1771 258.1578 12.42889201443589
